{
  "norad_id": 52550,
  "name": "STARLINK-3965",
  "history": [
    {
      "epoch": "2026-03-28T06:42:19.246752",
      "apogee_km": 540.8015157791397,
      "perigee_km": 538.6943280319265,
      "latitude_deg": -5.205007309511684,
      "longitude_deg": -178.17861472000368,
      "semi_major_axis_km": 6917.884921905533,
      "eccentricity": 0.0001523,
      "inclination_deg": 53.2186,
      "raan_deg": 45.6656,
      "arg_perigee_deg": 92.1731,
      "mean_anomaly_deg": 267.9436,
      "mean_motion_rev_day": 15.08838517
    },
    {
      "epoch": "2026-03-29T03:22:19.841952",
      "apogee_km": 540.7978695875972,
      "perigee_km": 538.689299585415,
      "latitude_deg": -51.41223058228729,
      "longitude_deg": -95.51128671993501,
      "semi_major_axis_km": 6917.880584586506,
      "eccentricity": 0.0001524,
      "inclination_deg": 53.219,
      "raan_deg": 41.7997,
      "arg_perigee_deg": 94.9217,
      "mean_anomaly_deg": 265.1949,
      "mean_motion_rev_day": 15.08839936
    }
  ]
}